start=new Date('2022-01-18T00:00:00.000Z').valueOf();
sats=[{"TIME_SYSTEM":"UTC","FILE":"3276075","MEAN_MOTION":"15.83860152","ECCENTRICITY":"0.00081570","RA_OF_ASC_NODE":"144.7576","ARG_OF_PERICENTER":"265.7181","CENTER_NAME":"EARTH","PERIAPSIS":"314.075","BSTAR":"-0.00389380000000","SEMIMAJOR_AXIS":"6697.673","OBJECT_TYPE":"PAYLOAD","EPOCH":"2022-01-17T22:00:00.999936","NORAD_CAT_ID":"50812","DECAY_DATE":null,"SITE":"AFETR","INCLINATION":"53.2171","PERIOD":"90.917","ELEMENT_SET_NO":"999","TLE_LINE2":"2 50812  53.2171 144.7576 0008157 265.7181  31.5667 15.83860152  2281","GP_ID":"194091299","REV_AT_EPOCH":"228","TLE_LINE1":"1 50812U 22001K   22017.91667824 -.00810809  00000-0 -38938-2 0  9997","EPHEMERIS_TYPE":"0","LAUNCH_DATE":"2022-01-06","MEAN_ELEMENT_THEORY":"SGP4","OBJECT_ID":"2022-001K","MEAN_MOTION_DDOT":"0.0000000000000","MEAN_MOTION_DOT":"-0.00810809","OBJECT_NAME":"STARLINK-3338","COUNTRY_CODE":"US","APOAPSIS":"325.001","MEAN_ANOMALY":"31.5667","RCS_SIZE":"LARGE","CLASSIFICATION_TYPE":"U","REF_FRAME":"TEME"},{"REV_AT_EPOCH":"227","TLE_LINE1":"1 50813U 22001L   22017.91667824 -.00810784  00000-0 -38960-2 0  9995","LAUNCH_DATE":"2022-01-06","EPHEMERIS_TYPE":"0","MEAN_ELEMENT_THEORY":"SGP4","OBJECT_ID":"2022-001L","MEAN_MOTION_DDOT":"0.0000000000000","MEAN_MOTION_DOT":"-0.00810784","SITE":"AFETR","ELEMENT_SET_NO":"999","PERIOD":"90.918","INCLINATION":"53.2171","TLE_LINE2":"2 50813  53.2171 144.7584 0008098 265.7376  31.1540 15.83848869  2277","GP_ID":"194091415","APOAPSIS":"324.994","RCS_SIZE":"LARGE","MEAN_ANOMALY":"31.1540","CLASSIFICATION_TYPE":"U","REF_FRAME":"TEME","OBJECT_NAME":"STARLINK-3349","COUNTRY_CODE":"US","ECCENTRICITY":"0.00080980","ARG_OF_PERICENTER":"265.7376","RA_OF_ASC_NODE":"144.7584","CENTER_NAME":"EARTH","TIME_SYSTEM":"UTC","FILE":"3276075","MEAN_MOTION":"15.83848869","EPOCH":"2022-01-17T22:00:00.999936","NORAD_CAT_ID":"50813","DECAY_DATE":null,"PERIAPSIS":"314.146","BSTAR":"-0.00389600000000","SEMIMAJOR_AXIS":"6697.705","OBJECT_TYPE":"PAYLOAD"},{"MEAN_MOTION":"15.83901853","FILE":"3276075","TIME_SYSTEM":"UTC","CENTER_NAME":"EARTH","ARG_OF_PERICENTER":"267.1561","RA_OF_ASC_NODE":"144.7542","ECCENTRICITY":"0.00074960","OBJECT_TYPE":"PAYLOAD","SEMIMAJOR_AXIS":"6697.556","BSTAR":"-0.00387000000000","PERIAPSIS":"314.400","DECAY_DATE":null,"NORAD_CAT_ID":"50814","EPOCH":"2022-01-17T22:00:00.999936","GP_ID":"194091180","TLE_LINE2":"2 50814  53.2172 144.7542 0007496 267.1561  31.7258 15.83901853  2282","PERIOD":"90.915","ELEMENT_SET_NO":"999","INCLINATION":"53.2172","SITE":"AFETR","MEAN_MOTION_DOT":"-0.00807292","MEAN_MOTION_DDOT":"0.0000000000000","OBJECT_ID":"2022-001M","LAUNCH_DATE":"2022-01-06","EPHEMERIS_TYPE":"0","MEAN_ELEMENT_THEORY":"SGP4","REV_AT_EPOCH":"228","TLE_LINE1":"1 50814U 22001M   22017.91667824 -.00807292  00000-0 -38700-2 0  9998","COUNTRY_CODE":"US","OBJECT_NAME":"STARLINK-3324","REF_FRAME":"TEME","CLASSIFICATION_TYPE":"U","RCS_SIZE":"LARGE","MEAN_ANOMALY":"31.7258","APOAPSIS":"324.441"},{"SEMIMAJOR_AXIS":"6697.638","OBJECT_TYPE":"PAYLOAD","BSTAR":"-0.00390330000000","PERIAPSIS":"313.764","DECAY_DATE":null,"NORAD_CAT_ID":"50815","EPOCH":"2022-01-17T22:00:00.999936","MEAN_MOTION":"15.83872799","FILE":"3276075","TIME_SYSTEM":"UTC","ARG_OF_PERICENTER":"263.6966","RA_OF_ASC_NODE":"144.7568","CENTER_NAME":"EARTH","ECCENTRICITY":"0.00085680","COUNTRY_CODE":"US","OBJECT_NAME":"STARLINK-3234","REF_FRAME":"TEME","RCS_SIZE":"LARGE","MEAN_ANOMALY":"33.9809","CLASSIFICATION_TYPE":"U","APOAPSIS":"325.241","TLE_LINE2":"2 50815  53.2171 144.7568 0008568 263.6966  33.9809 15.83872799  2283","GP_ID":"194091376","PERIOD":"90.916","ELEMENT_SET_NO":"999","INCLINATION":"53.2171","SITE":"AFETR","MEAN_MOTION_DDOT":"0.0000000000000","MEAN_MOTION_DOT":"-0.00813372","LAUNCH_DATE":"2022-01-06","EPHEMERIS_TYPE":"0","MEAN_ELEMENT_THEORY":"SGP4","OBJECT_ID":"2022-001N","REV_AT_EPOCH":"228","TLE_LINE1":"1 50815U 22001N   22017.91667824 -.00813372  00000-0 -39033-2 0  9995"},{"TLE_LINE1":"1 50816U 22001P   22017.91667824 -.00808560  00000-0 -38659-2 0  9992","REV_AT_EPOCH":"228","MEAN_MOTION_DOT":"-0.00808560","MEAN_MOTION_DDOT":"0.0000000000000","OBJECT_ID":"2022-001P","LAUNCH_DATE":"2022-01-06","EPHEMERIS_TYPE":"0","MEAN_ELEMENT_THEORY":"SGP4","PERIOD":"90.912","ELEMENT_SET_NO":"999","INCLINATION":"53.2171","SITE":"AFETR","GP_ID":"194091141","TLE_LINE2":"2 50816  53.2171 144.7501 0007626 267.3107  33.5657 15.83957091  2289","APOAPSIS":"324.372","REF_FRAME":"TEME","CLASSIFICATION_TYPE":"U","RCS_SIZE":"LARGE","MEAN_ANOMALY":"33.5657","OBJECT_NAME":"STARLINK-3342","COUNTRY_CODE":"US","CENTER_NAME":"EARTH","ARG_OF_PERICENTER":"267.3107","RA_OF_ASC_NODE":"144.7501","ECCENTRICITY":"0.00076260","TIME_SYSTEM":"UTC","MEAN_MOTION":"15.83957091","FILE":"3276075","NORAD_CAT_ID":"50816","EPOCH":"2022-01-17T22:00:00.999936","DECAY_DATE":null,"PERIAPSIS":"314.157","OBJECT_TYPE":"PAYLOAD","SEMIMAJOR_AXIS":"6697.400","BSTAR":"-0.00386590000000"},{"ECCENTRICITY":"0.00080440","CENTER_NAME":"EARTH","ARG_OF_PERICENTER":"265.8787","RA_OF_ASC_NODE":"144.7560","TIME_SYSTEM":"UTC","FILE":"3276075","MEAN_MOTION":"15.83881867","EPOCH":"2022-01-17T22:00:00.999936","NORAD_CAT_ID":"50817","DECAY_DATE":null,"PERIAPSIS":"314.089","BSTAR":"-0.00388960000000","OBJECT_TYPE":"PAYLOAD","SEMIMAJOR_AXIS":"6697.612","TLE_LINE1":"1 50817U 22001Q   22017.91667824 -.00810701  00000-0 -38896-2 0  9996","REV_AT_EPOCH":"228","OBJECT_ID":"2022-001Q","LAUNCH_DATE":"2022-01-06","MEAN_ELEMENT_THEORY":"SGP4","EPHEMERIS_TYPE":"0","MEAN_MOTION_DOT":"-0.00810701","MEAN_MOTION_DDOT":"0.0000000000000","SITE":"AFETR","PERIOD":"90.916","ELEMENT_SET_NO":"999","INCLINATION":"53.2172","GP_ID":"194091258","TLE_LINE2":"2 50817  53.2172 144.7560 0008044 265.8787  32.2071 15.83881867  2281","APOAPSIS":"324.865","CLASSIFICATION_TYPE":"U","RCS_SIZE":"LARGE","MEAN_ANOMALY":"32.2071","REF_FRAME":"TEME","OBJECT_NAME":"STARLINK-3341","COUNTRY_CODE":"US"},{"OBJECT_NAME":"STARLINK-3336","COUNTRY_CODE":"US","APOAPSIS":"325.134","CLASSIFICATION_TYPE":"U","MEAN_ANOMALY":"37.2555","RCS_SIZE":"MEDIUM","REF_FRAME":"TEME","SITE":"AFETR","PERIOD":"90.913","INCLINATION":"53.2171","ELEMENT_SET_NO":"999","GP_ID":"194091339","TLE_LINE2":"2 50818  53.2171 144.7517 0008690 262.8215  37.2555 15.83939554  2282","TLE_LINE1":"1 50818U 22001R   22017.91667824 -.00815952  00000-0 -39038-2 0  9999","REV_AT_EPOCH":"228","OBJECT_ID":"2022-001R","EPHEMERIS_TYPE":"0","LAUNCH_DATE":"2022-01-06","MEAN_ELEMENT_THEORY":"SGP4","MEAN_MOTION_DOT":"-0.00815952","MEAN_MOTION_DDOT":"0.0000000000000","PERIAPSIS":"313.494","BSTAR":"-0.00390380000000","OBJECT_TYPE":"PAYLOAD","SEMIMAJOR_AXIS":"6697.449","NORAD_CAT_ID":"50818","EPOCH":"2022-01-17T22:00:00.999936","DECAY_DATE":null,"TIME_SYSTEM":"UTC","FILE":"3276075","MEAN_MOTION":"15.83939554","ECCENTRICITY":"0.00086900","CENTER_NAME":"EARTH","ARG_OF_PERICENTER":"262.8215","RA_OF_ASC_NODE":"144.7517"},{"TIME_SYSTEM":"UTC","MEAN_MOTION":"15.83911822","FILE":"3276075","CENTER_NAME":"EARTH","RA_OF_ASC_NODE":"144.7535","ARG_OF_PERICENTER":"267.6261","ECCENTRICITY":"0.00075240","PERIAPSIS":"314.353","OBJECT_TYPE":"PAYLOAD","SEMIMAJOR_AXIS":"6697.528","BSTAR":"-0.00386980000000","EPOCH":"2022-01-17T22:00:00.999936","NORAD_CAT_ID":"50819","DECAY_DATE":null,"ELEMENT_SET_NO":"999","PERIOD":"90.914","INCLINATION":"53.2171","SITE":"AFETR","GP_ID":"194091219","TLE_LINE2":"2 50819  53.2171 144.7535 0007524 267.6261  31.6808 15.83911822  2289","TLE_LINE1":"1 50819U 22001S   22017.91667824 -.00807626  00000-0 -38698-2 0  9990","REV_AT_EPOCH":"228","MEAN_MOTION_DOT":"-0.00807626","MEAN_MOTION_DDOT":"0.0000000000000","OBJECT_ID":"2022-001S","MEAN_ELEMENT_THEORY":"SGP4","LAUNCH_DATE":"2022-01-06","EPHEMERIS_TYPE":"0","OBJECT_NAME":"STARLINK-3327","COUNTRY_CODE":"US","APOAPSIS":"324.432","REF_FRAME":"TEME","CLASSIFICATION_TYPE":"U","MEAN_ANOMALY":"31.6808","RCS_SIZE":"MEDIUM"},{"OBJECT_NAME":"STARLINK-3339","COUNTRY_CODE":"US","APOAPSIS":"324.508","REF_FRAME":"TEME","MEAN_ANOMALY":"34.7122","RCS_SIZE":"LARGE","CLASSIFICATION_TYPE":"U","INCLINATION":"53.2171","PERIOD":"90.911","ELEMENT_SET_NO":"999","SITE":"AFETR","TLE_LINE2":"2 50820  53.2171 144.7493 0007878 266.5554  34.7122 15.83968977  2285","GP_ID":"194091300","REV_AT_EPOCH":"228","TLE_LINE1":"1 50820U 22001T   22017.91667824 -.00809694  00000-0 -38687-2 0  9997","MEAN_MOTION_DDOT":"0.0000000000000","MEAN_MOTION_DOT":"-0.00809694","MEAN_ELEMENT_THEORY":"SGP4","LAUNCH_DATE":"2022-01-06","EPHEMERIS_TYPE":"0","OBJECT_ID":"2022-001T","PERIAPSIS":"313.955","SEMIMAJOR_AXIS":"6697.366","OBJECT_TYPE":"PAYLOAD","BSTAR":"-0.00386870000000","EPOCH":"2022-01-17T22:00:00.999936","NORAD_CAT_ID":"50820","DECAY_DATE":null,"TIME_SYSTEM":"UTC","MEAN_MOTION":"15.83968977","FILE":"3276075","ARG_OF_PERICENTER":"266.5554","RA_OF_ASC_NODE":"144.7493","CENTER_NAME":"EARTH","ECCENTRICITY":"0.00078780"},{"DECAY_DATE":null,"NORAD_CAT_ID":"50821","EPOCH":"2022-01-17T22:00:00.999936","OBJECT_TYPE":"PAYLOAD","SEMIMAJOR_AXIS":"6697.240","BSTAR":"-0.00387040000000","PERIAPSIS":"313.668","CENTER_NAME":"EARTH","ARG_OF_PERICENTER":"265.7396","RA_OF_ASC_NODE":"144.7461","ECCENTRICITY":"0.00081180","MEAN_MOTION":"15.84013786","FILE":"3276075","TIME_SYSTEM":"UTC","REF_FRAME":"TEME","CLASSIFICATION_TYPE":"U","RCS_SIZE":"LARGE","MEAN_ANOMALY":"37.1173","APOAPSIS":"324.542","COUNTRY_CODE":"US","OBJECT_NAME":"STARLINK-3346","MEAN_MOTION_DOT":"-0.00811790","MEAN_MOTION_DDOT":"0.0000000000000","OBJECT_ID":"2022-001U","LAUNCH_DATE":"2022-01-06","EPHEMERIS_TYPE":"0","MEAN_ELEMENT_THEORY":"SGP4","TLE_LINE1":"1 50821U 22001U   22017.91667824 -.00811790  00000-0 -38704-2 0  9998","REV_AT_EPOCH":"227","GP_ID":"194091416","TLE_LINE2":"2 50821  53.2171 144.7461 0008118 265.7396  37.1173 15.84013786  2276","PERIOD":"90.908","ELEMENT_SET_NO":"999","INCLINATION":"53.2171","SITE":"AFETR"}];
